COSMOS 2520             
1 42907U 17046A   26115.93253292  .00000123  00000+0  00000+0 0  9994
2 42907   0.0237 114.3672 0000796 334.7510 145.5507  1.00275496 31875
TDRS 13                 
1 42915U 17047A   26115.92135287 -.00000112  00000+0  00000+0 0  9995
2 42915   3.4406   1.4356 0012831  98.4587  74.2455  1.00271810 31826
QZS-3 (MICHIBIKI-3)     
1 42917U 17048A   26115.94873966 -.00000361  00000+0  00000+0 0  9999
2 42917   0.0510 184.4452 0001336 196.1646 301.9308  1.00271304 31731
AMAZONAS 5              
1 42934U 17053A   26115.91155950 -.00000296  00000+0  00000+0 0  9994
2 42934   0.0376 310.4276 0004444  54.6115 116.0493  1.00265985 31522
ASIASAT 9               
1 42942U 17057A   26114.73562721 -.00000374  00000+0  00000+0 0  9991
2 42942   0.0111 267.8032 0001875 130.5278 201.3674  1.00270027 31322
INTELSAT 37E (IS-37E)   
1 42950U 17059A   26115.92005287 -.00000154  00000+0  00000+0 0  9999
2 42950   0.0085 206.4195 0002122 209.2116 111.5161  1.00271690 31545
BSAT-4A                 
1 42951U 17059B   26115.96595201 -.00000363  00000+0  00000+0 0  9996
2 42951   0.0718  55.6255 0004516 350.4173 265.5016  1.00269608 31276
QZS-4 (MICHIBIKI-4)     
1 42965U 17062A   26112.66690654 -.00000326  00000+0  00000+0 0  9996
2 42965  40.1416 344.1915 0746625 270.8161 335.9811  1.00266456 31246
SES-11 (ECHOSTAR 105)   
1 42967U 17063A   26115.90280613  .00000000  00000+0  00000+0 0  9997
2 42967   0.0185  67.3828 0002868 354.3977  12.1907  1.00269605 31193
KOREASAT 5A             
1 42984U 17067A   26115.92956547 -.00000372  00000+0  00000+0 0  9991
2 42984   0.0135 282.4604 0000953 105.6391 273.6331  1.00272917 31004
ALCOMSAT 1              
1 43039U 17078A   26115.91866619 -.00000199  00000+0  00000+0 0  9991
2 43039   0.0202 184.9711 0002515 187.9636 146.9031  1.00272578 30772
SBIRS GEO-3 (USA 282)   
1 43162U 18009A   26115.82073245  .00000115  00000+0  00000+0 0  9995
2 43162   2.1516   9.5997 0002217  15.2028 325.0883  1.00272374 30314
AL YAH 3                
1 43174U 18012A   26115.91961954 -.00000167  00000+0  00000+0 0  9993
2 43174   1.4185  83.6846 0004266 313.9216 127.2894  1.00272250 30328
SES-14                  
1 43175U 18012B   26115.91415951 -.00000292  00000+0  00000+0 0  9994
2 43175   0.0236  64.2246 0000942 323.9892 107.3152  1.00271525  6501
GOES 17                 
1 43226U 18022A   26115.86780985 -.00000195  00000+0  00000+0 0  9990
2 43226   0.8053  86.4106 0000672 269.3830  81.0047  1.00272049 29899
HISPASAT 30W-6          
1 43228U 18023A   26115.91771286  .00000000  00000+0  00000+0 0  9997
2 43228   0.0223  24.9181 0006324  14.9114 114.4777  1.00267342 29881
SUPERBIRD-B3            
1 43271U 18033A   26115.86726468 -.00000106  00000+0  00000+0 0  9990
2 43271   0.0391  74.0210 0001108 323.6975 290.3706  1.00271841 29531
HYLAS 4                 
1 43272U 18033B   26115.91693286  .00000000  00000+0  00000+0 0  9990
2 43272   0.0203 114.4734 0001654 296.2549  99.8314  1.00268625 29546
IRNSS-1I                
1 43286U 18035A   26113.96433882  .00000084  00000+0  00000+0 0  9996
2 43286  29.0520  75.0297 0018329 186.8735 352.2911  1.00274138 29532
USA 283                 
1 43339U 18036A   26113.45460377  .00000000  00000+0  00000+0 0  9997
2 43339   0.0106 233.1643 0000240  28.0848 248.0034  1.00268619 24740
COSMOS 2526             
1 43432U 18037A   26116.30544100 -.00000357  00000+0  00000+0 0  9992
2 43432   0.0215 115.5722 0000710  20.4919 316.2683  1.00271015 29436
APSTAR-6C               
1 43450U 18041A   26115.82080729 -.00000331  00000+0  00000+0 0  9997
2 43450   0.0428   7.6397 0002102 352.0656 283.6131  1.00274261 29284
BANGABANDHUSAT-1        
1 43463U 18044A   26115.94717965 -.00000376  00000+0  00000+0 0  9995
2 43463   0.0312  65.7195 0002079 328.0143 280.3059  1.00272214 29186
SES-12                  
1 43488U 18049A   26115.98369749  .00000000  00000+0  00000+0 0  9997
2 43488   0.0161  69.6107 0001300 249.8261 343.6976  1.00271361 28898
FENGYUN 2H              
1 43491U 18050A   26115.93929295 -.00000140  00000+0  00000+0 0  9992
2 43491   2.8988  79.6569 0001751 159.1021  32.5834  1.00274278 28919
BEIDOU-2 IGSO-7         
1 43539U 18057A   26113.82760630 -.00000099  00000+0  00000+0 0  9997
2 43539  55.1848 163.5332 0103271 237.5854 221.4335  1.00267626 28581
TELSTAR 19V             
1 43562U 18059A   26115.91112617 -.00000293  00000+0  00000+0 0  9999
2 43562   0.0190 192.6144 0001607 252.3679  33.9385  1.00270877 28628
TELKOM 4 (MERAH PUTIH)  
1 43587U 18064A   26115.94164324 -.00000357  00000+0  00000+0 0  9998
2 43587   0.0042 207.4670 0002021 218.1261 235.3447  1.00272603 28354
TELSTAR 18V             
1 43611U 18069A   26115.95090633 -.00000307  00000+0  00000+0 0  9998
2 43611   0.0136 265.8313 0002001 117.2370 311.2180  1.00271456 28113
AZERSPACE 2 (IS-38)     
1 43632U 18074A   26115.95252912  .00000123  00000+0  00000+0 0  9992
2 43632   0.0182 256.4093 0001391 125.4446 220.1301  1.00269580 27920
HORIZONS-3E             
1 43633U 18074B   26115.81449243 -.00000044  00000+0  00000+0 0  9996
2 43633   0.0398  64.8179 0000659 266.7017 344.5129  1.00271358 27818
AEHF-4 (USA 288)        
1 43651U 18079A   26115.91034617 -.00000289  00000+0  00000+0 0  9998
2 43651   1.4248 359.4019 0063439 357.9713 116.6354  1.00266558 27773
BEIDOU-3 G1             
1 43683U 18085A   26115.88399939 -.00000121  00000+0  00000+0 0  9992
2 43683   2.9434  98.7599 0007316 333.2042 260.1198  1.00265388 27536
GSAT-29                 
1 43698U 18089A   26115.97509961  .00000072  00000+0  00000+0 0  9994
2 43698   0.0749 259.0895 0003980 124.6550 236.3376  1.00271238 27264
ES'HAIL 2               
1 43700U 18090A   26115.97095516  .00000131  00000+0  00000+0 0  9992
2 43700   0.0339  89.1787 0001289 329.7351 170.3966  1.00274273 27154
GEO-KOMPSAT-2A          
1 43823U 18100A   26115.94899966 -.00000357  00000+0  00000+0 0  9999
2 43823   0.0569  67.0046 0001951 358.3470 258.5132  1.00271371 27109
GSAT-11                 
1 43824U 18100B   26115.98036010 -.00000090  00000+0  00000+0 0  9991
2 43824   0.0151 249.0060 0006895 180.5832 211.3297  1.00272205 26952
GSAT-7A                 
1 43864U 18105A   26115.98450713  .00000013  00000+0  00000+0 0  9994
2 43864   0.0520  58.9003 0002220 332.4246 239.8387  1.00271992 26929
COSMOS 2533             
1 43867U 18107A   26115.15316723 -.00000053  00000+0  00000+0 0  9995
2 43867   0.0444  73.6986 0000584 348.3583 276.2465  1.00272403 26911
TJS-3                   
1 43874U 18110A   26115.70987182 -.00000265  00000+0  00000+0 0  9996
2 43874   2.4115  81.0910 0000934  23.7357 136.1999  1.00762434 26893
ZHONGXING-2D            
1 43920U 19001A   26115.94934633 -.00000351  00000+0  00000+0 0  9993
2 43920   0.0239 319.5350 0000926  17.1219 349.0717  1.00269592 53551
HELLAS-SAT 4 & SGS-1    
1 44034U 19007A   26115.95252912  .00000139  00000+0  00000+0 0  9993
2 44034   0.0724 119.5553 0003330  23.5483  92.7898  1.00268862 26849
GSAT-31                 
1 44035U 19007B   26115.95470655  .00000112  00000+0  00000+0 0  9991
2 44035   0.0309 254.4628 0003019  88.3621 262.7064  1.00269947 26443
NUSANTARA SATU          
1 44048U 19009A   26115.88122604 -.00000248  00000+0  00000+0 0  9998
2 44048   0.0389 121.1058 0003130 335.6454 220.3889  1.00269700 26248
ZHONGXING-6C            
1 44067U 19012A   26115.94943300  .00000000  00000+0  00000+0 0  9999
2 44067   0.0156  63.2056 0011834 337.1212 285.8857  1.00270399 26218
WGS 10 (USA 291)        
1 44071U 19014A   26116.24975280  .00000000  00000+0  00000+0 0  9992
2 44071   0.0099 245.8132 0000448 115.0493   3.5955  1.00269682 26098
TIANLIAN 2-01           
1 44076U 19017A   26115.95808405 -.00000120  00000+0  00000+0 0  9995
2 44076   0.4064  82.6897 0001576 267.1273 286.0689  1.00272346 26129
ARABSAT-6A              
1 44186U 19021A   26115.94141926  .00000140  00000+0  00000+0 0  9990
2 44186   0.0611  27.5241 0002186  19.3628 176.4203  1.00271354 25632
BEIDOU-3 IGSO-1         
1 44204U 19023A   26110.03709628 -.00000228  00000+0  00000+0 0  9995
2 44204  58.6186  38.2497 0024357 235.9811  64.3555  1.00256582  6624
BEIDOU-2 G8             
1 44231U 19027A   26115.88087937 -.00000260  00000+0  00000+0 0  9995
2 44231   1.5273  74.3655 0011024 278.9128 322.2410  1.00268340 25554
YAMAL 601               
1 44307U 19031A   26115.14900722  .00000000  00000+0  00000+0 0  9990
2 44307   0.0126 236.3625 0002704 162.4395 277.0155  1.00271909 25383
AT&T T-16               
1 44333U 19034A   26115.54707913 -.00000129  00000+0  00000+0 0  9996
2 44333   0.0388  62.8509 0000743 158.3842  88.4190  1.00271356 25106
EUTELSAT 7C             
1 44334U 19034B   26115.21192747  .00000034  00000+0  00000+0 0  9998
2 44334   0.0745 180.9633 0003250 194.8636 280.6966  1.00270946  6308
BEIDOU-3 IGSO-2         
1 44337U 19035A   26115.51943234 -.00000108  00000+0  00000+0 0  9993
2 44337  55.2349 159.3247 0039394 215.1813 145.5001  1.00282791 25149
COSMOS 2539             
1 44457U 19048A   26114.71386079  .00000066  00000+0  00000+0 0  9991
2 44457   0.0325  69.6278 0000418  88.2800 323.8128  1.00271244 24692
EDRS-C                  
1 44475U 19049A   26115.95185968 -.00000275  00000+0  00000+0 0  9996
2 44475   0.0220 149.0691 0001266 225.8019 324.2593  1.00272975 24683
INTELSAT 39 (IS-39)     
1 44476U 19049B   26115.72199331  .00000000  00000+0  00000+0 0  9996
2 44476   0.0173 238.7985 0000479   6.5465 290.2524  1.00269540 24609
AMOS-17                 
1 44479U 19050A   26115.57047924  .00000096  00000+0  00000+0 0  9999
2 44479   0.0115 309.9385 0001319 100.3288  25.7123  1.00275165 24654
AEHF-5 (USA 292)        
1 44481U 19051A   26115.96797572 -.00000274  00000+0  00000+0 0  9996
2 44481   1.5050 332.3470 0069507   2.7597 320.4237  1.00272956 24732
